CCSDS_OMM_VERS,COMMENT,CREATION_DATE,ORIGINATOR,OBJECT_NAME,OBJECT_ID,CENTER_NAME,REF_FRAME,TIME_SYSTEM,MEAN_ELEMENT_THEORY,EPOCH,MEAN_MOTION,ECCENTRICITY,INCLINATION,RA_OF_ASC_NODE,ARG_OF_PERICENTER,MEAN_ANOMALY,EPHEMERIS_TYPE,CLASSIFICATION_TYPE,NORAD_CAT_ID,ELEMENT_SET_NO,REV_AT_EPOCH,BSTAR,MEAN_MOTION_DOT,MEAN_MOTION_DDOT,SEMIMAJOR_AXIS,PERIOD,APOAPSIS,PERIAPSIS,OBJECT_TYPE,RCS_SIZE,COUNTRY_CODE,LAUNCH_DATE,SITE,DECAY_DATE,FILE,GP_ID,TLE_LINE0,TLE_LINE1,TLE_LINE2
"2.0","GENERATED VIA SPACE-TRACK.ORG API","2009-02-16T17:20:37","18 SPCS","COSMOS 2251","1993-036A","EARTH","TEME","UTC","SGP4","2009-02-16T23:22:22.973664","14.32046773","0.00248890","74.0408","5.8136","147.4084","212.8573","0","U","22675","999","81848","0.00010000000000","0.00000244","0.0000000000000","7163.039","100.555","802.732","767.075","PAYLOAD","LARGE","CIS","1993-06-16","PKMTR","","673599","69952058","0 COSMOS 2251","1 22675U 93036A   09047.97387701  .00000244  00000-0  10000-3 0  9999","2 22675 074.0408 005.8136 0024889 147.4084 212.8573 14.32046773818483"
"2.0","GENERATED VIA SPACE-TRACK.ORG API","2009-02-16T17:19:53","18 SPCS","IRIDIUM 33","1997-051C","EARTH","TEME","UTC","SGP4","2009-02-16T23:28:45.011135","14.32467667","0.00103770","86.3896","118.6697","68.5169","291.7137","0","U","24946","999","59836","0.00003204400000","0.00000107","0.0000000000000","7161.635","100.525","790.932","776.069","PAYLOAD","LARGE","US","1997-09-14","TTMTR","","673598","69952057","0 IRIDIUM 33","1 24946U 97051C   09047.97829874  .00000107  00000-0  32044-4 0  9996","2 24946 086.3896 118.6697 0010377 068.5169 291.7137 14.32467667598365"
"2.0","GENERATED VIA SPACE-TRACK.ORG API","2009-02-17T07:19:41","18 SPCS","IRIDIUM 33","1997-051C","EARTH","TEME","UTC","SGP4","2009-02-16T23:28:45.011135","14.32467667","0.00103770","86.3896","118.6697","68.5169","291.7137","0","U","24946","999","59836","0.00003204400000","0.00000107","0.0000000000000","7161.635","100.525","790.932","776.069","PAYLOAD","LARGE","US","1997-09-14","TTMTR","","673756","69962100","0 IRIDIUM 33","1 24946U 97051C   09047.97829874  .00000107  00000-0  32044-4 0  9996","2 24946 086.3896 118.6697 0010377 068.5169 291.7137 14.32467667598365"
"2.0","GENERATED VIA SPACE-TRACK.ORG API","2009-02-17T08:11:15","18 SPCS","COSMOS 2251","1993-036A","EARTH","TEME","UTC","SGP4","2009-02-17T07:45:21.792095","14.32046731","0.00248610","74.0409","5.1768","146.6264","213.6424","0","U","22675","999","81853","0.00010000000000","0.00000244","0.0000000000000","7163.039","100.555","802.712","767.096","PAYLOAD","LARGE","CIS","1993-06-16","PKMTR","","673822","69963166","0 COSMOS 2251","1 22675U 93036A   09048.32316889  .00000244  00000-0  10000-3 0  9998","2 22675 074.0409 005.1768 0024861 146.6264 213.6424 14.32046731818533"
"2.0","GENERATED VIA SPACE-TRACK.ORG API","2009-02-17T08:11:09","18 SPCS","IRIDIUM 33","1997-051C","EARTH","TEME","UTC","SGP4","2009-02-17T11:12:52.482239","14.32467735","0.00103630","86.3894","118.4657","67.0171","293.2113","0","U","24946","999","59843","0.00003420800000","0.00000112","0.0000000000000","7161.635","100.525","790.922","776.079","PAYLOAD","LARGE","US","1997-09-14","TTMTR","","673821","69963165","0 IRIDIUM 33","1 24946U 97051C   09048.46727410  .00000112  00000-0  34208-4 0  9994","2 24946 086.3894 118.4657 0010363 067.0171 293.2113 14.32467735598434"
"2.0","GENERATED VIA SPACE-TRACK.ORG API","2009-02-18T06:56:43","18 SPCS","IRIDIUM 33","1997-051C","EARTH","TEME","UTC","SGP4","2009-02-17T11:12:52.482239","14.32467735","0.00103630","86.3894","118.4657","67.0171","293.2113","0","U","24946","999","59843","0.00003420800000","0.00000112","0.0000000000000","7161.635","100.525","790.922","776.079","PAYLOAD","LARGE","US","1997-09-14","TTMTR","","674173","69968141","0 IRIDIUM 33","1 24946U 97051C   09048.46727410  .00000112  00000-0  34208-4 0  9994","2 24946 086.3894 118.4657 0010363 067.0171 293.2113 14.32467735598434"
"2.0","GENERATED VIA SPACE-TRACK.ORG API","2009-02-18T08:17:19","18 SPCS","COSMOS 2251","1993-036A","EARTH","TEME","UTC","SGP4","2009-02-18T12:15:29.610432","14.32043748","0.00249180","74.0407","3.0113","144.0320","216.2267","0","U","22675","999","81870","-0.00005187100000","-0.00000166","0.0000000000000","7163.049","100.555","802.762","767.065","PAYLOAD","LARGE","CIS","1993-06-16","PKMTR","","674276","69976314","0 COSMOS 2251","1 22675U 93036A   09049.51075938 -.00000166  00000-0 -51871-4 0  9994","2 22675 074.0407 003.0113 0024918 144.0320 216.2267 14.32043748818708"
"2.0","GENERATED VIA SPACE-TRACK.ORG API","2009-02-18T08:17:01","18 SPCS","IRIDIUM 33","1997-051C","EARTH","TEME","UTC","SGP4","2009-02-18T14:02:18.144671","14.32468155","0.00103500","86.3891","117.9988","64.0704","296.1576","0","U","24946","999","59859","0.00004298500000","0.00000136","0.0000000000000","7161.634","100.525","790.911","776.086","PAYLOAD","LARGE","US","1997-09-14","TTMTR","","674275","69976313","0 IRIDIUM 33","1 24946U 97051C   09049.58493223  .00000136  00000-0  42985-4 0  9997","2 24946 086.3891 117.9988 0010350 064.0704 296.1576 14.32468155598596"
"2.0","GENERATED VIA SPACE-TRACK.ORG API","2009-02-19T06:33:14","18 SPCS","IRIDIUM 33","1997-051C","EARTH","TEME","UTC","SGP4","2009-02-18T14:02:18.144671","14.32468155","0.00103500","86.3891","117.9988","64.0704","296.1576","0","U","24946","999","59859","0.00004298500000","0.00000136","0.0000000000000","7161.634","100.525","790.911","776.086","PAYLOAD","LARGE","US","1997-09-14","TTMTR","","674620","69981559","0 IRIDIUM 33","1 24946U 97051C   09049.58493223  .00000136  00000-0  42985-4 0  9997","2 24946 086.3891 117.9988 0010350 064.0704 296.1576 14.32468155598596"
"2.0","GENERATED VIA SPACE-TRACK.ORG API","2009-02-19T06:46:32","18 SPCS","COSMOS 2251","1993-036A","EARTH","TEME","UTC","SGP4","2009-02-19T13:24:26.447616","14.32044146","0.00248730","74.0407","1.1010","141.8164","218.4785","0","U","22675","999","81885","-0.00002751400000","-0.00000100","0.0000000000000","7163.047","100.555","802.729","767.096","PAYLOAD","LARGE","CIS","1993-06-16","PKMTR","","674629","69981654","0 COSMOS 2251","1 22675U 93036A   09050.55863944 -.00000100  00000-0 -27514-4 0  9997","2 22675 074.0407 001.1010 0024873 141.8164 218.4785 14.32044146818852"
"2.0","GENERATED VIA SPACE-TRACK.ORG API","2009-02-19T07:07:02","18 SPCS","COSMOS 2251","1993-036A","EARTH","TEME","UTC","SGP4","2009-02-19T13:24:27.219168","14.32043695","0.00249510","74.0427","1.0980","141.6382","218.7029","0","U","22675","999","81885","0.00000000000000","-0.00000370","0.0000000000000","7163.049","100.555","802.786","767.041","PAYLOAD","LARGE","CIS","1993-06-16","PKMTR","","674633","69981671","0 COSMOS 2251","1 22675U 93036A   09050.55864837 -.00000370  00000-0  00000+0 0  9993","2 22675 074.0427 001.0980 0024951 141.6382 218.7029 14.32043695818858"
"2.0","GENERATED VIA SPACE-TRACK.ORG API","2009-02-19T15:27:12","18 SPCS","COSMOS 2251","1993-036A","EARTH","TEME","UTC","SGP4","2009-02-19T13:24:27.221760","14.32043629","0.00249440","74.0427","1.0980","141.6429","218.6982","0","U","22675","999","81885","0.00000000000000","-0.00000387","0.0000000000000","7163.049","100.555","802.782","767.046","PAYLOAD","LARGE","CIS","1993-06-16","PKMTR","","674759","69988398","0 COSMOS 2251","1 22675U 93036A   09050.55864840 -.00000387  00000-0  00000+0 0  9995","2 22675 074.0427 001.0980 0024944 141.6429 218.6982 14.32043629818856"
"2.0","GENERATED VIA SPACE-TRACK.ORG API","2009-02-19T15:23:11","18 SPCS","COSMOS 2251","1993-036A","EARTH","TEME","UTC","SGP4","2009-02-19T13:24:27.235584","14.32043354","0.00249550","74.0424","1.0977","141.6347","218.7065","0","U","22675","999","81885","0.00000000000000","-0.00000451","0.0000000000000","7163.050","100.555","802.790","767.040","PAYLOAD","LARGE","CIS","1993-06-16","PKMTR","","674719","69988193","0 COSMOS 2251","1 22675U 93036A   09050.55864856 -.00000451  00000-0  00000+0 0  9994","2 22675 074.0424 001.0977 0024955 141.6347 218.7065 14.32043354818858"
"2.0","GENERATED VIA SPACE-TRACK.ORG API","2009-02-19T06:45:33","18 SPCS","IRIDIUM 33","1997-051C","EARTH","TEME","UTC","SGP4","2009-02-19T13:30:33.031583","14.32467939","0.00103510","86.3889","117.5903","61.1082","299.1121","0","U","24946","999","59873","0.00002484400000","0.00000087","0.0000000000000","7161.634","100.525","790.912","776.086","PAYLOAD","LARGE","US","1997-09-14","TTMTR","","674628","69981653","0 IRIDIUM 33","1 24946U 97051C   09050.56288231  .00000087  00000-0  24844-4 0  9997","2 24946 086.3889 117.5903 0010351 061.1082 299.1121 14.32467939598738"
"2.0","GENERATED VIA SPACE-TRACK.ORG API","2009-02-19T15:20:48","18 SPCS","IRIDIUM 33","1997-051C","EARTH","TEME","UTC","SGP4","2009-02-19T16:51:44.587296","14.32467525","0.00102820","86.3893","117.5311","62.5582","297.7141","0","U","24946","999","59875","0.00000000000000","-0.00000051","0.0000000000000","7161.636","100.525","790.864","776.137","PAYLOAD","LARGE","US","1997-09-14","TTMTR","","674685","69988073","0 IRIDIUM 33","1 24946U 97051C   09050.70259939 -.00000051  00000-0  00000+0 0  9991","2 24946 086.3893 117.5311 0010282 062.5582 297.7141 14.32467525598758"
